[{"OBJECT_NAME":"STARLINK-36191","OBJECT_ID":"2025-293W","EPOCH":"2026-03-09T11:40:33.579264","MEAN_MOTION":14.98334349,"ECCENTRICITY":0.00034509,"INCLINATION":70.0001,"RA_OF_ASC_NODE":95.1187,"ARG_OF_PERICENTER":270.4304,"MEAN_ANOMALY":89.646,"EPHEMERIS_TYPE":0,"CLASSIFICATION_TYPE":"U","NORAD_CAT_ID":67023,"ELEMENT_SET_NO":999,"REV_AT_EPOCH":1485,"BSTAR":0.00020941516,"MEAN_MOTION_DOT":2.407e-5,"MEAN_MOTION_DDOT":0},{"OBJECT_NAME":"CZ-6A DEB","OBJECT_ID":"2024-140HT","EPOCH":"2026-03-09T14:47:18.537792","MEAN_MOTION":14.73340782,"ECCENTRICITY":0.0120127,"INCLINATION":88.9844,"RA_OF_ASC_NODE":279.929,"ARG_OF_PERICENTER":188.2272,"MEAN_ANOMALY":171.6982,"EPHEMERIS_TYPE":0,"CLASSIFICATION_TYPE":"U","NORAD_CAT_ID":60840,"ELEMENT_SET_NO":999,"REV_AT_EPOCH":8412,"BSTAR":0.0011992,"MEAN_MOTION_DOT":8.732e-5,"MEAN_MOTION_DDOT":0}]
